Lid,longitude,latitude,address,zipcode
ZFr9jZ7v1F-1,-71.064697,42.358101,Massachusetts/Boston/539 Washington Street/time_zone:America/New_York,02108
KovZpZAFd1nA-11,-71.1176226,42.3514544,Massachusetts/Boston/925 Commonwealth Ave/time_zone:America/New_York,02215
KovZpZAJd6aA-15,-71.109255,42.419637,Massachusetts/Medford/30 Forest Street/time_zone:America/New_York,02115
KovZpZAJd6FA-16,-71.0652677,42.3499769,Massachusetts/Boston/270 Tremont Street/time_zone:America/New_York,02116
KovZpZAEAdIA-17,-70.811438,42.90703,New Hampshire/Hampton Beach/169 Ocean Blvd/time_zone:America/New_York,03842
KovZpZA6taIA-18,-72.0914563,41.4915974,Connecticut/Uncasville/1 Mohegan Sun Blvd/time_zone:America/New_York,06382
KovZpZAEAIvA-19,-71.065086,42.3504843,Massachusetts/Boston/246 Tremont St./time_zone:America/New_York,02116
KovZpZAJd6FA-20,-71.0652677,42.3499769,Massachusetts/Boston/270 Tremont Street/time_zone:America/New_York,02116
KovZpZAEAIvA-21,-71.065086,42.3504843,Massachusetts/Boston/246 Tremont St./time_zone:America/New_York,02116
KovZpZAJd6FA-22,-71.0652677,42.3499769,Massachusetts/Boston/270 Tremont Street/time_zone:America/New_York,02116
KovZpZAEAdEA-23,-71.03587836,42.34851323,Massachusetts/Boston/290 Northern Ave/time_zone:America/New_York,02210
KovZpZAE6e6A-26,-71.9630872,41.4783608,Connecticut/Mashantucket/39 Norwich Westerly Road/time_zone:America/New_York,06355
KovZpZAJd6aA-28,-71.109255,42.419637,Massachusetts/Medford/30 Forest Street/time_zone:America/New_York,02115
KovZpZAFd1nA-29,-71.1176226,42.3514544,Massachusetts/Boston/925 Commonwealth Ave/time_zone:America/New_York,02215
KovZpZAEAdIA-30,-70.811438,42.90703,New Hampshire/Hampton Beach/169 Ocean Blvd/time_zone:America/New_York,03842
KovZpZAEA7eA-31,-71.0957036,42.3471841,Massachusetts/Boston/15 Lansdowne St./time_zone:America/New_York,02215
KovZpapwne-32,-71.1326128,42.3528999,Massachusetts/Boston/158 Brighton Avenue/time_zone:America/New_York,02134
KovZpZAEAdIA-34,-70.811438,42.90703,New Hampshire/Hampton Beach/169 Ocean Blvd/time_zone:America/New_York,03842
KovZpZAEA7eA-35,-71.0957036,42.3471841,Massachusetts/Boston/15 Lansdowne St./time_zone:America/New_York,02215
KovZpZAE7v6A-36,-71.437762,41.892518,Rhode Island/Lincoln/100 Twin River Rd/time_zone:America/New_York,02865
KovZpZAEA7eA-38,-71.0957036,42.3471841,Massachusetts/Boston/15 Lansdowne St./time_zone:America/New_York,02215
KovZpZAEAdIA-39,-70.811438,42.90703,New Hampshire/Hampton Beach/169 Ocean Blvd/time_zone:America/New_York,03842
KovZpZAEAdEA-40,-71.03587836,42.34851323,Massachusetts/Boston/290 Northern Ave/time_zone:America/New_York,02210
KovZpZAJd6FA-41,-71.0652677,42.3499769,Massachusetts/Boston/270 Tremont Street/time_zone:America/New_York,02116
KovZpa2gGe-42,-71.41742,41.822582,Rhode Island/Providence/1 Lasalle SQ/time_zone:America/New_York,02903
KovZpa1qje-43,-71.412946,43.580124,New Hampshire/Gilford/72 Meadowbrook LN/time_zone:America/New_York,03249
KovZpZA77lkA-44,-70.81629566,42.84356106,Massachusetts/Salisbury/4 Oceanfront North/time_zone:America/New_York,01952
KovZpZAFd1JA-45,-71.0622801,42.3537865,Massachusetts/Boston/539 Washington Street/time_zone:America/New_York,02111
KovZpZAJd6aA-46,-71.109255,42.419637,Massachusetts/Medford/30 Forest Street/time_zone:America/New_York,02115
KovZpapwne-47,-71.1326128,42.3528999,Massachusetts/Boston/158 Brighton Avenue/time_zone:America/New_York,02134
KovZpZAJd6FA-48,-71.0652677,42.3499769,Massachusetts/Boston/270 Tremont Street/time_zone:America/New_York,02116
KovZpZA77lkA-49,-70.81629566,42.84356106,Massachusetts/Salisbury/4 Oceanfront North/time_zone:America/New_York,01952
KovZpZAJd6FA-50,-71.0652677,42.3499769,Massachusetts/Boston/270 Tremont Street/time_zone:America/New_York,02116
KovZpZAEkFtA-51,-72.846188,41.4486599,Connecticut/Wallingford/95 South Turnpike Road/time_zone:America/New_York,06492
KovZpZAEAIvA-52,-71.065086,42.3504843,Massachusetts/Boston/246 Tremont St./time_zone:America/New_York,02116
KovZpZAEAIvA-54,-71.065086,42.3504843,Massachusetts/Boston/246 Tremont St./time_zone:America/New_York,02116
KovZpZAEA7eA-55,-71.0957036,42.3471841,Massachusetts/Boston/15 Lansdowne St./time_zone:America/New_York,02215
KovZpZAEAIvA-56,-71.065086,42.3504843,Massachusetts/Boston/246 Tremont St./time_zone:America/New_York,02116
KovZpZAE7v6A-57,-71.437762,41.892518,Rhode Island/Lincoln/100 Twin River Rd/time_zone:America/New_York,02865
KovZpZA6taIA-60,-72.0914563,41.4915974,Connecticut/Uncasville/1 Mohegan Sun Blvd/time_zone:America/New_York,06382
KovZpZAEkFtA-61,-72.846188,41.4486599,Connecticut/Wallingford/95 South Turnpike Road/time_zone:America/New_York,06492
KovZpZAE6e6A-62,-71.9630872,41.4783608,Connecticut/Mashantucket/39 Norwich Westerly Road/time_zone:America/New_York,06355
KovZpZAE6e6A-63,-71.9630872,41.4783608,Connecticut/Mashantucket/39 Norwich Westerly Road/time_zone:America/New_York,06355
KovZpZAEAdIA-64,-70.811438,42.90703,New Hampshire/Hampton Beach/169 Ocean Blvd/time_zone:America/New_York,03842
KovZpZA1J7JA-67,-71.0617906,42.3566313,Massachusetts/Boston/1 Hamilton PL/time_zone:America/New_York,02108
KovZpZAEAdEA-68,-71.03587836,42.34851323,Massachusetts/Boston/290 Northern Ave/time_zone:America/New_York,02210
KovZ917AxdQ-69,-71.0617,42.365977,Massachusetts/Boston/110 Causeway Street /time_zone:America/New_York,02114
KovZpZAEAIeA-71,-69.7978526,44.3418905,Maine/Augusta/76 Community Drive/time_zone:America/New_York,04330
KovZpZAEAdIA-72,-70.811438,42.90703,New Hampshire/Hampton Beach/169 Ocean Blvd/time_zone:America/New_York,03842
KovZpZAJd6aA-75,-71.109255,42.419637,Massachusetts/Medford/30 Forest Street/time_zone:America/New_York,02115
KovZpZAEA7eA-76,-71.0957036,42.3471841,Massachusetts/Boston/15 Lansdowne St./time_zone:America/New_York,02215
KovZpZAEAIvA-77,-71.065086,42.3504843,Massachusetts/Boston/246 Tremont St./time_zone:America/New_York,02116
KovZpZAE6e6A-78,-71.9630872,41.4783608,Connecticut/Mashantucket/39 Norwich Westerly Road/time_zone:America/New_York,06355
KovZpZAEAdIA-80,-70.811438,42.90703,New Hampshire/Hampton Beach/169 Ocean Blvd/time_zone:America/New_York,03842
KovZ917AxdQ-81,-71.0617,42.365977,Massachusetts/Boston/110 Causeway Street /time_zone:America/New_York,02114
KovZpZAEA7eA-82,-71.0957036,42.3471841,Massachusetts/Boston/15 Lansdowne St./time_zone:America/New_York,02215
KovZpZAEAIvA-83,-71.065086,42.3504843,Massachusetts/Boston/246 Tremont St./time_zone:America/New_York,02116
KovZpZAEAIvA-84,-71.065086,42.3504843,Massachusetts/Boston/246 Tremont St./time_zone:America/New_York,02116
KovZpa4tUe-86,-70.95121002,42.46480942,Massachusetts/Lynn/3 City Hall Sq./time_zone:America/New_York,01901
Z6r9jZdFve-87,-70.292397,41.660702,Massachusetts/Hyannis/21 W. Main St./time_zone:America/New_York,02601
KovZpZAEAdIA-88,-70.811438,42.90703,New Hampshire/Hampton Beach/169 Ocean Blvd/time_zone:America/New_York,03842
Z6r9jZdFve-90,-70.292397,41.660702,Massachusetts/Hyannis/21 W. Main St./time_zone:America/New_York,02601
KovZpZAJd6aA-91,-71.109255,42.419637,Massachusetts/Medford/30 Forest Street/time_zone:America/New_York,02115
KovZpZAEAIvA-92,-71.065086,42.3504843,Massachusetts/Boston/246 Tremont St./time_zone:America/New_York,02116
KovZpZAEAIvA-93,-71.065086,42.3504843,Massachusetts/Boston/246 Tremont St./time_zone:America/New_York,02116
KovZpZAEAIvA-95,-71.065086,42.3504843,Massachusetts/Boston/246 Tremont St./time_zone:America/New_York,02116
KovZpZAEAIvA-96,-71.065086,42.3504843,Massachusetts/Boston/246 Tremont St./time_zone:America/New_York,02116
KovZpZAEAIvA-97,-71.065086,42.3504843,Massachusetts/Boston/246 Tremont St./time_zone:America/New_York,02116
KovZpZAEAIvA-100,-71.065086,42.3504843,Massachusetts/Boston/246 Tremont St./time_zone:America/New_York,02116
KovZpZA11JtA-101,-71.1195379,42.3518332,Massachusetts/Boston/967 Commonwealth Avenue/time_zone:America/New_York,02215
KovZpZAEAIvA-103,-71.065086,42.3504843,Massachusetts/Boston/246 Tremont St./time_zone:America/New_York,02116
KovZpZAE7v6A-105,-71.437762,41.892518,Rhode Island/Lincoln/100 Twin River Rd/time_zone:America/New_York,02865
KovZ917AQ07-108,-70.878915,42.551455,Massachusetts/Beverly/286 Cabot Street/time_zone:America/New_York,01915
KovZpZAE6e6A-109,-71.9630872,41.4783608,Connecticut/Mashantucket/39 Norwich Westerly Road/time_zone:America/New_York,06355
KovZ917AQ07-110,-70.878915,42.551455,Massachusetts/Beverly/286 Cabot Street/time_zone:America/New_York,01915
KovZ917AxdQ-112,-71.0617,42.365977,Massachusetts/Boston/110 Causeway Street /time_zone:America/New_York,02114
KovZpZA11JtA-113,-71.1195379,42.3518332,Massachusetts/Boston/967 Commonwealth Avenue/time_zone:America/New_York,02215
Z6r9jZdFve-114,-70.292397,41.660702,Massachusetts/Hyannis/21 W. Main St./time_zone:America/New_York,02601
KovZpZA11JtA-116,-71.1195379,42.3518332,Massachusetts/Boston/967 Commonwealth Avenue/time_zone:America/New_York,02215
KovZpZAEAdIA-117,-70.811438,42.90703,New Hampshire/Hampton Beach/169 Ocean Blvd/time_zone:America/New_York,03842
KovZpapwne-118,-71.1326128,42.3528999,Massachusetts/Boston/158 Brighton Avenue/time_zone:America/New_York,02134
KovZpZAEkFlA-120,-71.975699,41.4489233,Connecticut/Mashantucket/39 Norwich Westerly Road/time_zone:America/New_York,06355
KovZpZAE7v6A-121,-71.437762,41.892518,Rhode Island/Lincoln/100 Twin River Rd/time_zone:America/New_York,02865
KovZpZAEAIvA-122,-71.065086,42.3504843,Massachusetts/Boston/246 Tremont St./time_zone:America/New_York,02116
KovZpZA11JtA-126,-71.1195379,42.3518332,Massachusetts/Boston/967 Commonwealth Avenue/time_zone:America/New_York,02215
KovZpZAEAdEA-128,-71.03587836,42.34851323,Massachusetts/Boston/290 Northern Ave/time_zone:America/New_York,02210
KovZpZAEAdIA-131,-70.811438,42.90703,New Hampshire/Hampton Beach/169 Ocean Blvd/time_zone:America/New_York,03842
KovZpZAEAIvA-132,-71.065086,42.3504843,Massachusetts/Boston/246 Tremont St./time_zone:America/New_York,02116
KovZpZA11JtA-133,-71.1195379,42.3518332,Massachusetts/Boston/967 Commonwealth Avenue/time_zone:America/New_York,02215
KovZpZAEAIvA-134,-71.065086,42.3504843,Massachusetts/Boston/246 Tremont St./time_zone:America/New_York,02116
KovZpZAEAIvA-136,-71.065086,42.3504843,Massachusetts/Boston/246 Tremont St./time_zone:America/New_York,02116
KovZpa4tUe-137,-70.95121002,42.46480942,Massachusetts/Lynn/3 City Hall Sq./time_zone:America/New_York,01901
KovZ917AQ07-138,-70.878915,42.551455,Massachusetts/Beverly/286 Cabot Street/time_zone:America/New_York,01915
KovZpZAEA7eA-139,-71.0957036,42.3471841,Massachusetts/Boston/15 Lansdowne St./time_zone:America/New_York,02215
KovZpZA11JtA-140,-71.1195379,42.3518332,Massachusetts/Boston/967 Commonwealth Avenue/time_zone:America/New_York,02215
KovZpZAEAIvA-141,-71.065086,42.3504843,Massachusetts/Boston/246 Tremont St./time_zone:America/New_York,02116
KovZpZAE7v6A-143,-71.437762,41.892518,Rhode Island/Lincoln/100 Twin River Rd/time_zone:America/New_York,02865
KovZpZAEAIvA-144,-71.065086,42.3504843,Massachusetts/Boston/246 Tremont St./time_zone:America/New_York,02116
KovZpa4tUe-146,-70.95121002,42.46480942,Massachusetts/Lynn/3 City Hall Sq./time_zone:America/New_York,01901
KovZ917AQ07-147,-70.878915,42.551455,Massachusetts/Beverly/286 Cabot Street/time_zone:America/New_York,01915
KovZpZA11JtA-149,-71.1195379,42.3518332,Massachusetts/Boston/967 Commonwealth Avenue/time_zone:America/New_York,02215
KovZ917AxdQ-151,-71.0617,42.365977,Massachusetts/Boston/110 Causeway Street /time_zone:America/New_York,02114
KovZpZAJd6aA-152,-71.109255,42.419637,Massachusetts/Medford/30 Forest Street/time_zone:America/New_York,02115
KovZpZAEAIvA-153,-71.065086,42.3504843,Massachusetts/Boston/246 Tremont St./time_zone:America/New_York,02116
KovZpZAEAIvA-156,-71.065086,42.3504843,Massachusetts/Boston/246 Tremont St./time_zone:America/New_York,02116
KovZ917AxdQ-158,-71.0617,42.365977,Massachusetts/Boston/110 Causeway Street /time_zone:America/New_York,02114
KovZpZAEAIvA-160,-71.065086,42.3504843,Massachusetts/Boston/246 Tremont St./time_zone:America/New_York,02116
ZFr9jZdF1e-161,-71.801498,42.2617,Massachusetts/Worcester/261 Main St./time_zone:America/New_York,01608
KovZpZAEAdIA-162,-70.811438,42.90703,New Hampshire/Hampton Beach/169 Ocean Blvd/time_zone:America/New_York,03842
ZFr9jZFa61-164,-71.075302,42.349602,Massachusetts/Boston/279 Tremont Street/time_zone:America/New_York,02116
KovZpZA6taIA-165,-72.0914563,41.4915974,Connecticut/Uncasville/1 Mohegan Sun Blvd/time_zone:America/New_York,06382
ZFr9jZdF1e-166,-71.801498,42.2617,Massachusetts/Worcester/261 Main St./time_zone:America/New_York,01608
KovZpZAEAIvA-167,-71.065086,42.3504843,Massachusetts/Boston/246 Tremont St./time_zone:America/New_York,02116
KovZpZAJd6aA-168,-71.109255,42.419637,Massachusetts/Medford/30 Forest Street/time_zone:America/New_York,02115
KovZpZA77lkA-169,-70.81629566,42.84356106,Massachusetts/Salisbury/4 Oceanfront North/time_zone:America/New_York,01952
Z7r9jZadfX-173,-71.068001,42.362099,Massachusetts/Boston/80 BEVERLY STREET/time_zone:America/New_York,02114
ZFr9jZ1Adk-174,-71.040298,42.3466,Massachusetts/Boston/415 Summer St/time_zone:America/New_York,02210
KovZpZA11JtA-175,-71.1195379,42.3518332,Massachusetts/Boston/967 Commonwealth Avenue/time_zone:America/New_York,02215
KovZ917AQ07-176,-70.878915,42.551455,Massachusetts/Beverly/286 Cabot Street/time_zone:America/New_York,01915
KovZpZA11JtA-177,-71.1195379,42.3518332,Massachusetts/Boston/967 Commonwealth Avenue/time_zone:America/New_York,02215
KovZpZA77lkA-178,-70.81629566,42.84356106,Massachusetts/Salisbury/4 Oceanfront North/time_zone:America/New_York,01952
KovZpZAEAIvA-179,-71.065086,42.3504843,Massachusetts/Boston/246 Tremont St./time_zone:America/New_York,02116
KovZpZAEAdIA-180,-70.811438,42.90703,New Hampshire/Hampton Beach/169 Ocean Blvd/time_zone:America/New_York,03842
KovZpZAJvElA-181,-70.60681813,41.44900337,Massachusetts/Oak Bluffs/100 Edgartown Rd/time_zone:America/New_York,02568
KovZ917AxdQ-182,-71.0617,42.365977,Massachusetts/Boston/110 Causeway Street /time_zone:America/New_York,02114
ZFr9jZA6aA-183,-71.103302,42.363098,Massachusetts/Cambridge/480 Massachusetts Ave/time_zone:America/New_York,02139
Z6r9jZdFve-184,-70.292397,41.660702,Massachusetts/Hyannis/21 W. Main St./time_zone:America/New_York,02601
KovZ917AQ07-185,-70.878915,42.551455,Massachusetts/Beverly/286 Cabot Street/time_zone:America/New_York,01915
ZFr9jZ1eka-188,-71.134697,42.380199,Massachusetts/Cambridge/50 Church Street/time_zone:America/New_York,02138
Z7r9jZadfX-189,-71.068001,42.362099,Massachusetts/Boston/80 BEVERLY STREET/time_zone:America/New_York,02114
KovZpZAEAIvA-190,-71.065086,42.3504843,Massachusetts/Boston/246 Tremont St./time_zone:America/New_York,02116
ZFr9jZ1eka-191,-71.134697,42.380199,Massachusetts/Cambridge/50 Church Street/time_zone:America/New_York,02138
KovZpZAJd6aA-193,-71.109255,42.419637,Massachusetts/Medford/30 Forest Street/time_zone:America/New_York,02115
KovZpZA77lkA-194,-70.81629566,42.84356106,Massachusetts/Salisbury/4 Oceanfront North/time_zone:America/New_York,01952
KovZpZAEAIvA-195,-71.065086,42.3504843,Massachusetts/Boston/246 Tremont St./time_zone:America/New_York,02116
KovZpa4tUe-196,-70.95121002,42.46480942,Massachusetts/Lynn/3 City Hall Sq./time_zone:America/New_York,01901
KovZpa4tUe-198,-70.95121002,42.46480942,Massachusetts/Lynn/3 City Hall Sq./time_zone:America/New_York,01901
KovZpZAEAIeA-200,-69.7978526,44.3418905,Maine/Augusta/76 Community Drive/time_zone:America/New_York,04330
